PROGRESS-MS 32          
1 65586U 25204A   25302.16707945  .00014299  00000+0  26191-3 0  9990
2 65586  51.6346   3.1486 0004793 352.0349   8.0563 15.49570566   277
CYGNUS NG-23            
1 65616U 25208A   25302.16707945  .00014299  00000+0  26191-3 0  9998
2 65616  51.6346   3.1486 0004793 352.0349   8.0563 15.49570566   226
DRAGONFLY               
1 65729U 98067XH  25302.41819524  .00104205  00000+0  13038-2 0  9993
2 65729  51.6318   0.3294 0003083  53.6299 306.4978 15.58973793  6225
1998-067XJ              
1 65730U 98067XJ  25302.40401103  .00263021  00000+0  24162-2 0  9996
2 65730  51.6300 359.4809 0010537  29.3069 330.8516 15.66265981  6237
1998-067XK              
1 65731U 98067XK  25302.43881803  .00076003  00000+0  10228-2 0  9999
2 65731  51.6331   0.4681 0004625  30.1386 329.9872 15.57170106  6223
RSP-03                  
1 65732U 98067XL  25302.49285889  .00084090  00000+0  10925-2 0  9997
2 65732  51.6330   0.0780 0005343  30.7872 329.3433 15.58061180  6244
GHS-01                  
1 65733U 98067XM  25302.41125611  .00114044  00000+0  13914-2 0  9990
2 65733  51.6329   0.2847 0003522  49.9737 310.1564 15.59592909  6239
YOTSUBA-KULOVER         
1 65941U 98067XN  25302.26949893  .00061866  00000+0  97963-3 0  9990
2 65941  51.6329   2.3338 0002423 329.0751  31.0096 15.52825324  2930
BOTAN                   
1 65942U 98067XP  25302.26518097  .00081619  00000+0  12539-2 0  9992
2 65942  51.6330   2.3057 0004485 349.8237  10.2662 15.53535995  2931
E-KAGAKU-1              
1 65943U 98067XQ  25301.56115012  .00055962  00000+0  88980-3 0  9991
2 65943  51.6335   5.8532 0004147 335.4056  24.6736 15.52749009  2829
HRC MONOBLOCK CAMERA    
1 66052U 98067XR  25302.42058953  .00036728  00000+0  63945-3 0  9992
2 66052  51.6333   1.8421 0004285   1.4506 358.6494 15.50393475  1959
HTV-X 1                 
1 66174U 25241A   25300.49424941  .00010095  00000+0  16773-3 0  9996
2 66174  51.6338  11.4824 0004046 344.0379  16.0483 15.52723727   245
